[{"OBJECT_NAME":"STARLINK-32137","OBJECT_ID":"2024-120W","EPOCH":"2026-03-09T22:25:20.489088","MEAN_MOTION":15.30164126,"ECCENTRICITY":0.00011806,"INCLINATION":53.1599,"RA_OF_ASC_NODE":318.7857,"ARG_OF_PERICENTER":75.4191,"MEAN_ANOMALY":284.694,"EPHEMERIS_TYPE":0,"CLASSIFICATION_TYPE":"U","NORAD_CAT_ID":60155,"ELEMENT_SET_NO":999,"REV_AT_EPOCH":9641,"BSTAR":-0.00026647598,"MEAN_MOTION_DOT":-8.234e-5,"MEAN_MOTION_DDOT":0},{"OBJECT_NAME":"SL-12 R\/B(AUX MOTOR)","OBJECT_ID":"2005-050E","EPOCH":"2026-03-08T07:26:00.239136","MEAN_MOTION":4.2433482,"ECCENTRICITY":0.57510761,"INCLINATION":64.943,"RA_OF_ASC_NODE":98.713,"ARG_OF_PERICENTER":201.1527,"MEAN_ANOMALY":119.6164,"EPHEMERIS_TYPE":0,"CLASSIFICATION_TYPE":"U","NORAD_CAT_ID":28919,"ELEMENT_SET_NO":999,"REV_AT_EPOCH":31206,"BSTAR":0.00050180171,"MEAN_MOTION_DOT":2.02e-6,"MEAN_MOTION_DDOT":0}]
